<?xml version="1.0" encoding="UTF-8"?>
<gpx version="1.1" creator="Doc Alvers Mathe-Labor (Komoot-Import-Test)" xmlns="http://www.topografix.com/GPX/1/1">
  <metadata><name>RuD 6: Bühlau - Kleinzschachwitz</name></metadata>
  <trk>
    <name>RuD 6: Bühlau - Kleinzschachwitz · 10.37 km · Ø 3,6 km/h (Tobler)</name>
    <trkseg>
      <trkpt lat="51.0623450" lon="13.8552040"><ele>242.5</ele><time>2026-07-06T09:00:00.000Z</time></trkpt>
      <trkpt lat="51.0623480" lon="13.8552750"><ele>242.5</ele><time>2026-07-06T09:00:04.914Z</time></trkpt>
      <trkpt lat="51.0623450" lon="13.8553360"><ele>242.5</ele><time>2026-07-06T09:00:09.140Z</time></trkpt>
      <trkpt lat="51.0621970" lon="13.8552670"><ele>242.6</ele><time>2026-07-06T09:00:26.436Z</time></trkpt>
      <trkpt lat="51.0621630" lon="13.8552440"><ele>242.7</ele><time>2026-07-06T09:00:30.857Z</time></trkpt>
      <trkpt lat="51.0620890" lon="13.8551660"><ele>242.7</ele><time>2026-07-06T09:00:40.611Z</time></trkpt>
      <trkpt lat="51.0619370" lon="13.8550450"><ele>242.9</ele><time>2026-07-06T09:00:59.992Z</time></trkpt>
      <trkpt lat="51.0618500" lon="13.8549420"><ele>243.1</ele><time>2026-07-06T09:01:12.621Z</time></trkpt>
      <trkpt lat="51.0617180" lon="13.8548500"><ele>243.3</ele><time>2026-07-06T09:01:29.164Z</time></trkpt>
      <trkpt lat="51.0616290" lon="13.8548710"><ele>243.5</ele><time>2026-07-06T09:01:39.767Z</time></trkpt>
      <trkpt lat="51.0615290" lon="13.8549450"><ele>243.6</ele><time>2026-07-06T09:01:52.237Z</time></trkpt>
      <trkpt lat="51.0614340" lon="13.8550080"><ele>243.8</ele><time>2026-07-06T09:02:04.260Z</time></trkpt>
      <trkpt lat="51.0613720" lon="13.8550720"><ele>244.0</ele><time>2026-07-06T09:02:13.104Z</time></trkpt>
      <trkpt lat="51.0609130" lon="13.8555610"><ele>245.6</ele><time>2026-07-06T09:03:19.598Z</time></trkpt>
      <trkpt lat="51.0606130" lon="13.8560010"><ele>247.2</ele><time>2026-07-06T09:04:10.324Z</time></trkpt>
      <trkpt lat="51.0606010" lon="13.8560210"><ele>247.3</ele><time>2026-07-06T09:04:12.613Z</time></trkpt>
      <trkpt lat="51.0602250" lon="13.8565880"><ele>249.2</ele><time>2026-07-06T09:05:16.505Z</time></trkpt>
      <trkpt lat="51.0599310" lon="13.8569500"><ele>250.6</ele><time>2026-07-06T09:06:02.498Z</time></trkpt>
      <trkpt lat="51.0595820" lon="13.8574830"><ele>252.4</ele><time>2026-07-06T09:07:02.262Z</time></trkpt>
      <trkpt lat="51.0594890" lon="13.8576590"><ele>252.8</ele><time>2026-07-06T09:07:19.588Z</time></trkpt>
      <trkpt lat="51.0590380" lon="13.8584670"><ele>255.0</ele><time>2026-07-06T09:08:42.234Z</time></trkpt>
      <trkpt lat="51.0589340" lon="13.8585860"><ele>255.5</ele><time>2026-07-06T09:08:58.151Z</time></trkpt>
      <trkpt lat="51.0589080" lon="13.8586210"><ele>255.6</ele><time>2026-07-06T09:09:02.256Z</time></trkpt>
      <trkpt lat="51.0585540" lon="13.8588780"><ele>257.4</ele><time>2026-07-06T09:09:51.716Z</time></trkpt>
      <trkpt lat="51.0584740" lon="13.8589660"><ele>257.9</ele><time>2026-07-06T09:10:04.281Z</time></trkpt>
      <trkpt lat="51.0584010" lon="13.8590680"><ele>258.3</ele><time>2026-07-06T09:10:16.434Z</time></trkpt>
      <trkpt lat="51.0582280" lon="13.8594310"><ele>259.7</ele><time>2026-07-06T09:10:53.133Z</time></trkpt>
      <trkpt lat="51.0579210" lon="13.8600340"><ele>262.4</ele><time>2026-07-06T09:11:56.932Z</time></trkpt>
      <trkpt lat="51.0577250" lon="13.8603750"><ele>264.2</ele><time>2026-07-06T09:12:35.722Z</time></trkpt>
      <trkpt lat="51.0573420" lon="13.8609230"><ele>267.4</ele><time>2026-07-06T09:13:44.549Z</time></trkpt>
      <trkpt lat="51.0567590" lon="13.8615520"><ele>271.5</ele><time>2026-07-06T09:15:17.519Z</time></trkpt>
      <trkpt lat="51.0564660" lon="13.8617160"><ele>273.2</ele><time>2026-07-06T09:15:58.067Z</time></trkpt>
      <trkpt lat="51.0563450" lon="13.8613440"><ele>274.4</ele><time>2026-07-06T09:16:31.461Z</time></trkpt>
      <trkpt lat="51.0562160" lon="13.8608280"><ele>275.7</ele><time>2026-07-06T09:17:14.588Z</time></trkpt>
      <trkpt lat="51.0559450" lon="13.8597180"><ele>277.9</ele><time>2026-07-06T09:18:44.809Z</time></trkpt>
      <trkpt lat="51.0559280" lon="13.8595250"><ele>278.3</ele><time>2026-07-06T09:18:59.727Z</time></trkpt>
      <trkpt lat="51.0559170" lon="13.8591800"><ele>278.9</ele><time>2026-07-06T09:19:25.756Z</time></trkpt>
      <trkpt lat="51.0559410" lon="13.8591040"><ele>279.1</ele><time>2026-07-06T09:19:32.365Z</time></trkpt>
      <trkpt lat="51.0558390" lon="13.8587700"><ele>279.8</ele><time>2026-07-06T09:20:00.552Z</time></trkpt>
      <trkpt lat="51.0555310" lon="13.8572430"><ele>282.0</ele><time>2026-07-06T09:21:59.198Z</time></trkpt>
      <trkpt lat="51.0554800" lon="13.8567850"><ele>282.0</ele><time>2026-07-06T09:22:31.326Z</time></trkpt>
      <trkpt lat="51.0553520" lon="13.8562260"><ele>281.4</ele><time>2026-07-06T09:23:10.395Z</time></trkpt>
      <trkpt lat="51.0552100" lon="13.8557660"><ele>280.4</ele><time>2026-07-06T09:23:42.498Z</time></trkpt>
      <trkpt lat="51.0549730" lon="13.8547280"><ele>277.3</ele><time>2026-07-06T09:24:48.776Z</time></trkpt>
      <trkpt lat="51.0547630" lon="13.8540190"><ele>275.2</ele><time>2026-07-06T09:25:36.115Z</time></trkpt>
      <trkpt lat="51.0543950" lon="13.8530800"><ele>273.6</ele><time>2026-07-06T09:26:47.210Z</time></trkpt>
      <trkpt lat="51.0542200" lon="13.8527900"><ele>273.4</ele><time>2026-07-06T09:27:14.295Z</time></trkpt>
      <trkpt lat="51.0538240" lon="13.8523070"><ele>273.5</ele><time>2026-07-06T09:28:09.475Z</time></trkpt>
      <trkpt lat="51.0537640" lon="13.8522740"><ele>273.6</ele><time>2026-07-06T09:28:16.806Z</time></trkpt>
      <trkpt lat="51.0534820" lon="13.8523710"><ele>273.9</ele><time>2026-07-06T09:28:49.565Z</time></trkpt>
      <trkpt lat="51.0534580" lon="13.8523490"><ele>273.9</ele><time>2026-07-06T09:28:52.609Z</time></trkpt>
      <trkpt lat="51.0531200" lon="13.8510290"><ele>275.2</ele><time>2026-07-06T09:30:35.663Z</time></trkpt>
      <trkpt lat="51.0526900" lon="13.8496000"><ele>276.0</ele><time>2026-07-06T09:32:27.901Z</time></trkpt>
      <trkpt lat="51.0524280" lon="13.8488350"><ele>275.7</ele><time>2026-07-06T09:33:27.049Z</time></trkpt>
      <trkpt lat="51.0521800" lon="13.8482990"><ele>275.2</ele><time>2026-07-06T09:34:11.325Z</time></trkpt>
      <trkpt lat="51.0527030" lon="13.8475260"><ele>274.9</ele><time>2026-07-06T09:35:28.742Z</time></trkpt>
      <trkpt lat="51.0523380" lon="13.8468980"><ele>275.1</ele><time>2026-07-06T09:36:28.519Z</time></trkpt>
      <trkpt lat="51.0520370" lon="13.8465420"><ele>275.7</ele><time>2026-07-06T09:37:11.863Z</time></trkpt>
      <trkpt lat="51.0511240" lon="13.8458140"><ele>278.0</ele><time>2026-07-06T09:39:12.332Z</time></trkpt>
      <trkpt lat="51.0510130" lon="13.8456360"><ele>278.2</ele><time>2026-07-06T09:39:30.358Z</time></trkpt>
      <trkpt lat="51.0506540" lon="13.8452000"><ele>278.0</ele><time>2026-07-06T09:40:19.303Z</time></trkpt>
      <trkpt lat="51.0505980" lon="13.8450440"><ele>277.8</ele><time>2026-07-06T09:40:31.040Z</time></trkpt>
      <trkpt lat="51.0506040" lon="13.8448820"><ele>277.7</ele><time>2026-07-06T09:40:41.910Z</time></trkpt>
      <trkpt lat="51.0505980" lon="13.8450440"><ele>277.5</ele><time>2026-07-06T09:40:52.449Z</time></trkpt>
      <trkpt lat="51.0504630" lon="13.8451710"><ele>277.1</ele><time>2026-07-06T09:41:08.354Z</time></trkpt>
      <trkpt lat="51.0499850" lon="13.8462980"><ele>273.9</ele><time>2026-07-06T09:42:31.828Z</time></trkpt>
      <trkpt lat="51.0498590" lon="13.8467770"><ele>272.2</ele><time>2026-07-06T09:43:02.274Z</time></trkpt>
      <trkpt lat="51.0497000" lon="13.8469610"><ele>271.2</ele><time>2026-07-06T09:43:20.685Z</time></trkpt>
      <trkpt lat="51.0496700" lon="13.8469960"><ele>271.1</ele><time>2026-07-06T09:43:24.441Z</time></trkpt>
      <trkpt lat="51.0495170" lon="13.8471430"><ele>270.2</ele><time>2026-07-06T09:43:41.204Z</time></trkpt>
      <trkpt lat="51.0493570" lon="13.8472890"><ele>269.4</ele><time>2026-07-06T09:43:58.887Z</time></trkpt>
      <trkpt lat="51.0491180" lon="13.8475070"><ele>268.3</ele><time>2026-07-06T09:44:25.586Z</time></trkpt>
      <trkpt lat="51.0483250" lon="13.8482210"><ele>264.0</ele><time>2026-07-06T09:45:51.897Z</time></trkpt>
      <trkpt lat="51.0480970" lon="13.8484270"><ele>262.6</ele><time>2026-07-06T09:46:16.253Z</time></trkpt>
      <trkpt lat="51.0479550" lon="13.8482050"><ele>261.7</ele><time>2026-07-06T09:46:35.231Z</time></trkpt>
      <trkpt lat="51.0478040" lon="13.8480760"><ele>260.8</ele><time>2026-07-06T09:46:51.196Z</time></trkpt>
      <trkpt lat="51.0475310" lon="13.8479260"><ele>259.5</ele><time>2026-07-06T09:47:18.742Z</time></trkpt>
      <trkpt lat="51.0473580" lon="13.8479550"><ele>258.7</ele><time>2026-07-06T09:47:35.282Z</time></trkpt>
      <trkpt lat="51.0467770" lon="13.8484120"><ele>255.7</ele><time>2026-07-06T09:48:36.850Z</time></trkpt>
      <trkpt lat="51.0465650" lon="13.8486870"><ele>254.5</ele><time>2026-07-06T09:49:03.034Z</time></trkpt>
      <trkpt lat="51.0464020" lon="13.8489960"><ele>253.5</ele><time>2026-07-06T09:49:27.647Z</time></trkpt>
      <trkpt lat="51.0459790" lon="13.8494420"><ele>251.2</ele><time>2026-07-06T09:50:16.001Z</time></trkpt>
      <trkpt lat="51.0454820" lon="13.8501710"><ele>247.5</ele><time>2026-07-06T09:51:18.536Z</time></trkpt>
      <trkpt lat="51.0453920" lon="13.8503480"><ele>246.8</ele><time>2026-07-06T09:51:32.019Z</time></trkpt>
      <trkpt lat="51.0451670" lon="13.8504830"><ele>245.5</ele><time>2026-07-06T09:51:54.310Z</time></trkpt>
      <trkpt lat="51.0449230" lon="13.8504310"><ele>244.5</ele><time>2026-07-06T09:52:18.115Z</time></trkpt>
      <trkpt lat="51.0446930" lon="13.8502790"><ele>243.8</ele><time>2026-07-06T09:52:43.167Z</time></trkpt>
      <trkpt lat="51.0445640" lon="13.8503730"><ele>243.6</ele><time>2026-07-06T09:52:58.083Z</time></trkpt>
      <trkpt lat="51.0444680" lon="13.8505220"><ele>243.5</ele><time>2026-07-06T09:53:12.480Z</time></trkpt>
      <trkpt lat="51.0444480" lon="13.8505610"><ele>243.5</ele><time>2026-07-06T09:53:15.957Z</time></trkpt>
      <trkpt lat="51.0443590" lon="13.8507230"><ele>243.5</ele><time>2026-07-06T09:53:30.821Z</time></trkpt>
      <trkpt lat="51.0443100" lon="13.8508200"><ele>243.5</ele><time>2026-07-06T09:53:39.417Z</time></trkpt>
      <trkpt lat="51.0442920" lon="13.8508280"><ele>243.5</ele><time>2026-07-06T09:53:41.471Z</time></trkpt>
      <trkpt lat="51.0441700" lon="13.8507880"><ele>243.7</ele><time>2026-07-06T09:53:55.869Z</time></trkpt>
      <trkpt lat="51.0441180" lon="13.8504460"><ele>244.2</ele><time>2026-07-06T09:54:21.971Z</time></trkpt>
      <trkpt lat="51.0440710" lon="13.8503110"><ele>244.5</ele><time>2026-07-06T09:54:33.722Z</time></trkpt>
      <trkpt lat="51.0440070" lon="13.8502930"><ele>244.7</ele><time>2026-07-06T09:54:41.590Z</time></trkpt>
      <trkpt lat="51.0439550" lon="13.8503660"><ele>244.9</ele><time>2026-07-06T09:54:49.936Z</time></trkpt>
      <trkpt lat="51.0438980" lon="13.8505320"><ele>245.4</ele><time>2026-07-06T09:55:04.853Z</time></trkpt>
      <trkpt lat="51.0438030" lon="13.8505750"><ele>245.8</ele><time>2026-07-06T09:55:17.182Z</time></trkpt>
      <trkpt lat="51.0437120" lon="13.8507050"><ele>246.3</ele><time>2026-07-06T09:55:32.469Z</time></trkpt>
      <trkpt lat="51.0435790" lon="13.8508010"><ele>247.1</ele><time>2026-07-06T09:55:51.538Z</time></trkpt>
      <trkpt lat="51.0434680" lon="13.8508370"><ele>247.8</ele><time>2026-07-06T09:56:06.659Z</time></trkpt>
      <trkpt lat="51.0430420" lon="13.8508080"><ele>250.3</ele><time>2026-07-06T09:57:03.011Z</time></trkpt>
      <trkpt lat="51.0428840" lon="13.8508680"><ele>251.3</ele><time>2026-07-06T09:57:24.678Z</time></trkpt>
      <trkpt lat="51.0415340" lon="13.8518980"><ele>259.5</ele><time>2026-07-06T10:00:40.166Z</time></trkpt>
      <trkpt lat="51.0398130" lon="13.8530680"><ele>263.5</ele><time>2026-07-06T10:04:20.147Z</time></trkpt>
      <trkpt lat="51.0397500" lon="13.8531230"><ele>263.5</ele><time>2026-07-06T10:04:28.044Z</time></trkpt>
      <trkpt lat="51.0397540" lon="13.8531860"><ele>263.5</ele><time>2026-07-06T10:04:32.419Z</time></trkpt>
      <trkpt lat="51.0398260" lon="13.8541750"><ele>262.8</ele><time>2026-07-06T10:05:38.832Z</time></trkpt>
      <trkpt lat="51.0399010" lon="13.8553670"><ele>261.1</ele><time>2026-07-06T10:06:55.928Z</time></trkpt>
      <trkpt lat="51.0398490" lon="13.8555040"><ele>260.9</ele><time>2026-07-06T10:07:06.315Z</time></trkpt>
      <trkpt lat="51.0398620" lon="13.8555980"><ele>260.7</ele><time>2026-07-06T10:07:12.308Z</time></trkpt>
      <trkpt lat="51.0397070" lon="13.8556940"><ele>260.2</ele><time>2026-07-06T10:07:28.936Z</time></trkpt>
      <trkpt lat="51.0396690" lon="13.8556820"><ele>260.1</ele><time>2026-07-06T10:07:32.861Z</time></trkpt>
      <trkpt lat="51.0396810" lon="13.8557890"><ele>259.9</ele><time>2026-07-06T10:07:39.710Z</time></trkpt>
      <trkpt lat="51.0398510" lon="13.8560280"><ele>259.1</ele><time>2026-07-06T10:08:02.025Z</time></trkpt>
      <trkpt lat="51.0397740" lon="13.8562210"><ele>258.6</ele><time>2026-07-06T10:08:16.180Z</time></trkpt>
      <trkpt lat="51.0397170" lon="13.8562750"><ele>258.3</ele><time>2026-07-06T10:08:22.503Z</time></trkpt>
      <trkpt lat="51.0396030" lon="13.8562420"><ele>257.9</ele><time>2026-07-06T10:08:33.925Z</time></trkpt>
      <trkpt lat="51.0392280" lon="13.8567530"><ele>255.7</ele><time>2026-07-06T10:09:21.091Z</time></trkpt>
      <trkpt lat="51.0390550" lon="13.8570160"><ele>254.6</ele><time>2026-07-06T10:09:43.847Z</time></trkpt>
      <trkpt lat="51.0386320" lon="13.8579260"><ele>250.7</ele><time>2026-07-06T10:10:49.651Z</time></trkpt>
      <trkpt lat="51.0384980" lon="13.8581810"><ele>249.4</ele><time>2026-07-06T10:11:09.332Z</time></trkpt>
      <trkpt lat="51.0384370" lon="13.8582390"><ele>248.9</ele><time>2026-07-06T10:11:16.200Z</time></trkpt>
      <trkpt lat="51.0382480" lon="13.8581960"><ele>247.6</ele><time>2026-07-06T10:11:34.518Z</time></trkpt>
      <trkpt lat="51.0381050" lon="13.8584260"><ele>246.2</ele><time>2026-07-06T10:11:54.078Z</time></trkpt>
      <trkpt lat="51.0380300" lon="13.8586880"><ele>244.9</ele><time>2026-07-06T10:12:11.651Z</time></trkpt>
      <trkpt lat="51.0375800" lon="13.8595600"><ele>239.6</ele><time>2026-07-06T10:13:21.143Z</time></trkpt>
      <trkpt lat="51.0374540" lon="13.8595730"><ele>238.8</ele><time>2026-07-06T10:13:33.078Z</time></trkpt>
      <trkpt lat="51.0372270" lon="13.8597390"><ele>237.6</ele><time>2026-07-06T10:13:56.681Z</time></trkpt>
      <trkpt lat="51.0371440" lon="13.8599100"><ele>237.1</ele><time>2026-07-06T10:14:09.975Z</time></trkpt>
      <trkpt lat="51.0370390" lon="13.8605040"><ele>236.9</ele><time>2026-07-06T10:14:51.924Z</time></trkpt>
      <trkpt lat="51.0370050" lon="13.8607120"><ele>237.2</ele><time>2026-07-06T10:15:07.850Z</time></trkpt>
      <trkpt lat="51.0370390" lon="13.8608140"><ele>237.4</ele><time>2026-07-06T10:15:16.549Z</time></trkpt>
      <trkpt lat="51.0370450" lon="13.8609260"><ele>237.7</ele><time>2026-07-06T10:15:25.427Z</time></trkpt>
      <trkpt lat="51.0371170" lon="13.8612480"><ele>238.6</ele><time>2026-07-06T10:15:52.369Z</time></trkpt>
      <trkpt lat="51.0371680" lon="13.8614420"><ele>239.4</ele><time>2026-07-06T10:16:09.947Z</time></trkpt>
      <trkpt lat="51.0371810" lon="13.8616520"><ele>240.3</ele><time>2026-07-06T10:16:27.998Z</time></trkpt>
      <trkpt lat="51.0371530" lon="13.8618750"><ele>241.4</ele><time>2026-07-06T10:16:48.016Z</time></trkpt>
      <trkpt lat="51.0370760" lon="13.8620580"><ele>242.6</ele><time>2026-07-06T10:17:08.003Z</time></trkpt>
      <trkpt lat="51.0369720" lon="13.8621850"><ele>243.8</ele><time>2026-07-06T10:17:27.222Z</time></trkpt>
      <trkpt lat="51.0367060" lon="13.8622840"><ele>246.3</ele><time>2026-07-06T10:18:07.263Z</time></trkpt>
      <trkpt lat="51.0363820" lon="13.8627110"><ele>250.2</ele><time>2026-07-06T10:19:09.167Z</time></trkpt>
      <trkpt lat="51.0363180" lon="13.8628030"><ele>250.9</ele><time>2026-07-06T10:19:21.405Z</time></trkpt>
      <trkpt lat="51.0361690" lon="13.8634620"><ele>254.5</ele><time>2026-07-06T10:20:23.997Z</time></trkpt>
      <trkpt lat="51.0358550" lon="13.8643430"><ele>258.5</ele><time>2026-07-06T10:21:49.271Z</time></trkpt>
      <trkpt lat="51.0357170" lon="13.8648440"><ele>260.2</ele><time>2026-07-06T10:22:33.429Z</time></trkpt>
      <trkpt lat="51.0356240" lon="13.8648610"><ele>260.6</ele><time>2026-07-06T10:22:45.197Z</time></trkpt>
      <trkpt lat="51.0355280" lon="13.8649480"><ele>261.0</ele><time>2026-07-06T10:22:58.804Z</time></trkpt>
      <trkpt lat="51.0351840" lon="13.8647280"><ele>262.4</ele><time>2026-07-06T10:23:44.690Z</time></trkpt>
      <trkpt lat="51.0350610" lon="13.8647100"><ele>262.8</ele><time>2026-07-06T10:23:59.719Z</time></trkpt>
      <trkpt lat="51.0346520" lon="13.8647930"><ele>263.7</ele><time>2026-07-06T10:24:48.250Z</time></trkpt>
      <trkpt lat="51.0342280" lon="13.8649280"><ele>264.1</ele><time>2026-07-06T10:25:37.171Z</time></trkpt>
      <trkpt lat="51.0329540" lon="13.8652560"><ele>266.7</ele><time>2026-07-06T10:28:08.275Z</time></trkpt>
      <trkpt lat="51.0323990" lon="13.8653700"><ele>268.1</ele><time>2026-07-06T10:29:14.807Z</time></trkpt>
      <trkpt lat="51.0320890" lon="13.8654180"><ele>268.9</ele><time>2026-07-06T10:29:51.916Z</time></trkpt>
      <trkpt lat="51.0312850" lon="13.8658940"><ele>270.4</ele><time>2026-07-06T10:31:31.524Z</time></trkpt>
      <trkpt lat="51.0310800" lon="13.8658930"><ele>270.6</ele><time>2026-07-06T10:31:54.754Z</time></trkpt>
      <trkpt lat="51.0304750" lon="13.8657940"><ele>270.4</ele><time>2026-07-06T10:33:00.898Z</time></trkpt>
      <trkpt lat="51.0303460" lon="13.8657970"><ele>270.2</ele><time>2026-07-06T10:33:14.400Z</time></trkpt>
      <trkpt lat="51.0301540" lon="13.8657110"><ele>269.8</ele><time>2026-07-06T10:33:34.979Z</time></trkpt>
      <trkpt lat="51.0293000" lon="13.8649060"><ele>266.8</ele><time>2026-07-06T10:35:14.176Z</time></trkpt>
      <trkpt lat="51.0291440" lon="13.8647460"><ele>266.0</ele><time>2026-07-06T10:35:31.988Z</time></trkpt>
      <trkpt lat="51.0289520" lon="13.8645650"><ele>265.0</ele><time>2026-07-06T10:35:53.290Z</time></trkpt>
      <trkpt lat="51.0285540" lon="13.8641260"><ele>263.1</ele><time>2026-07-06T10:36:40.336Z</time></trkpt>
      <trkpt lat="51.0282580" lon="13.8637900"><ele>262.0</ele><time>2026-07-06T10:37:16.672Z</time></trkpt>
      <trkpt lat="51.0280540" lon="13.8635840"><ele>261.3</ele><time>2026-07-06T10:37:40.914Z</time></trkpt>
      <trkpt lat="51.0278370" lon="13.8634840"><ele>260.7</ele><time>2026-07-06T10:38:03.750Z</time></trkpt>
      <trkpt lat="51.0277150" lon="13.8635420"><ele>260.4</ele><time>2026-07-06T10:38:16.743Z</time></trkpt>
      <trkpt lat="51.0274040" lon="13.8640830"><ele>259.6</ele><time>2026-07-06T10:39:04.705Z</time></trkpt>
      <trkpt lat="51.0271980" lon="13.8637620"><ele>259.1</ele><time>2026-07-06T10:39:34.718Z</time></trkpt>
      <trkpt lat="51.0264720" lon="13.8627010"><ele>258.8</ele><time>2026-07-06T10:41:22.045Z</time></trkpt>
      <trkpt lat="51.0264690" lon="13.8626930"><ele>258.8</ele><time>2026-07-06T10:41:22.689Z</time></trkpt>
      <trkpt lat="51.0264720" lon="13.8627010"><ele>258.8</ele><time>2026-07-06T10:41:23.333Z</time></trkpt>
      <trkpt lat="51.0271980" lon="13.8637620"><ele>259.4</ele><time>2026-07-06T10:43:13.788Z</time></trkpt>
      <trkpt lat="51.0274040" lon="13.8640830"><ele>259.7</ele><time>2026-07-06T10:43:46.539Z</time></trkpt>
      <trkpt lat="51.0270980" lon="13.8646710"><ele>260.1</ele><time>2026-07-06T10:44:40.687Z</time></trkpt>
      <trkpt lat="51.0268150" lon="13.8651850"><ele>260.2</ele><time>2026-07-06T10:45:28.248Z</time></trkpt>
      <trkpt lat="51.0267110" lon="13.8654580"><ele>260.5</ele><time>2026-07-06T10:45:51.370Z</time></trkpt>
      <trkpt lat="51.0266860" lon="13.8656170"><ele>260.5</ele><time>2026-07-06T10:46:02.697Z</time></trkpt>
      <trkpt lat="51.0266930" lon="13.8657830"><ele>260.7</ele><time>2026-07-06T10:46:14.909Z</time></trkpt>
      <trkpt lat="51.0266470" lon="13.8658060"><ele>260.7</ele><time>2026-07-06T10:46:20.208Z</time></trkpt>
      <trkpt lat="51.0265870" lon="13.8658690"><ele>260.8</ele><time>2026-07-06T10:46:28.462Z</time></trkpt>
      <trkpt lat="51.0264760" lon="13.8661640"><ele>261.0</ele><time>2026-07-06T10:46:52.923Z</time></trkpt>
      <trkpt lat="51.0263980" lon="13.8662390"><ele>261.1</ele><time>2026-07-06T10:47:03.292Z</time></trkpt>
      <trkpt lat="51.0263690" lon="13.8663180"><ele>261.2</ele><time>2026-07-06T10:47:09.970Z</time></trkpt>
      <trkpt lat="51.0263700" lon="13.8664220"><ele>261.3</ele><time>2026-07-06T10:47:17.513Z</time></trkpt>
      <trkpt lat="51.0264080" lon="13.8665360"><ele>261.4</ele><time>2026-07-06T10:47:26.783Z</time></trkpt>
      <trkpt lat="51.0264820" lon="13.8666230"><ele>261.5</ele><time>2026-07-06T10:47:37.248Z</time></trkpt>
      <trkpt lat="51.0264780" lon="13.8667860"><ele>261.7</ele><time>2026-07-06T10:47:49.236Z</time></trkpt>
      <trkpt lat="51.0261760" lon="13.8679360"><ele>262.3</ele><time>2026-07-06T10:49:17.468Z</time></trkpt>
      <trkpt lat="51.0258030" lon="13.8683220"><ele>261.8</ele><time>2026-07-06T10:50:04.675Z</time></trkpt>
      <trkpt lat="51.0255170" lon="13.8689310"><ele>260.5</ele><time>2026-07-06T10:50:52.896Z</time></trkpt>
      <trkpt lat="51.0245780" lon="13.8707340"><ele>251.1</ele><time>2026-07-06T10:53:12.285Z</time></trkpt>
      <trkpt lat="51.0241750" lon="13.8713740"><ele>244.9</ele><time>2026-07-06T10:54:14.417Z</time></trkpt>
      <trkpt lat="51.0239520" lon="13.8717330"><ele>241.3</ele><time>2026-07-06T10:54:49.538Z</time></trkpt>
      <trkpt lat="51.0234430" lon="13.8721880"><ele>235.9</ele><time>2026-07-06T10:55:50.034Z</time></trkpt>
      <trkpt lat="51.0232160" lon="13.8724760"><ele>234.0</ele><time>2026-07-06T10:56:17.666Z</time></trkpt>
      <trkpt lat="51.0231840" lon="13.8725860"><ele>233.7</ele><time>2026-07-06T10:56:25.067Z</time></trkpt>
      <trkpt lat="51.0232010" lon="13.8727640"><ele>233.3</ele><time>2026-07-06T10:56:36.202Z</time></trkpt>
      <trkpt lat="51.0233020" lon="13.8728020"><ele>233.1</ele><time>2026-07-06T10:56:46.935Z</time></trkpt>
      <trkpt lat="51.0233540" lon="13.8728260"><ele>233.1</ele><time>2026-07-06T10:56:52.886Z</time></trkpt>
      <trkpt lat="51.0233960" lon="13.8728440"><ele>233.1</ele><time>2026-07-06T10:56:57.666Z</time></trkpt>
      <trkpt lat="51.0234650" lon="13.8728750"><ele>233.1</ele><time>2026-07-06T10:57:05.545Z</time></trkpt>
      <trkpt lat="51.0234950" lon="13.8729120"><ele>233.1</ele><time>2026-07-06T10:57:09.717Z</time></trkpt>
      <trkpt lat="51.0234490" lon="13.8730800"><ele>233.3</ele><time>2026-07-06T10:57:23.093Z</time></trkpt>
      <trkpt lat="51.0234480" lon="13.8731750"><ele>233.5</ele><time>2026-07-06T10:57:30.389Z</time></trkpt>
      <trkpt lat="51.0234810" lon="13.8733060"><ele>233.9</ele><time>2026-07-06T10:57:41.630Z</time></trkpt>
      <trkpt lat="51.0234490" lon="13.8734200"><ele>234.3</ele><time>2026-07-06T10:57:51.759Z</time></trkpt>
      <trkpt lat="51.0234550" lon="13.8737720"><ele>235.8</ele><time>2026-07-06T10:58:21.881Z</time></trkpt>
      <trkpt lat="51.0233580" lon="13.8740550"><ele>237.3</ele><time>2026-07-06T10:58:49.999Z</time></trkpt>
      <trkpt lat="51.0231790" lon="13.8744240"><ele>239.4</ele><time>2026-07-06T10:59:30.356Z</time></trkpt>
      <trkpt lat="51.0229760" lon="13.8744730"><ele>240.7</ele><time>2026-07-06T10:59:57.895Z</time></trkpt>
      <trkpt lat="51.0228640" lon="13.8746330"><ele>241.5</ele><time>2026-07-06T11:00:17.453Z</time></trkpt>
      <trkpt lat="51.0227700" lon="13.8748600"><ele>242.5</ele><time>2026-07-06T11:00:40.036Z</time></trkpt>
      <trkpt lat="51.0227490" lon="13.8748410"><ele>242.6</ele><time>2026-07-06T11:00:43.061Z</time></trkpt>
      <trkpt lat="51.0223180" lon="13.8741280"><ele>244.9</ele><time>2026-07-06T11:01:59.849Z</time></trkpt>
      <trkpt lat="51.0222090" lon="13.8734940"><ele>245.4</ele><time>2026-07-06T11:02:47.042Z</time></trkpt>
      <trkpt lat="51.0222270" lon="13.8732740"><ele>245.1</ele><time>2026-07-06T11:03:01.373Z</time></trkpt>
      <trkpt lat="51.0221860" lon="13.8730540"><ele>244.7</ele><time>2026-07-06T11:03:15.909Z</time></trkpt>
      <trkpt lat="51.0217840" lon="13.8723880"><ele>242.3</ele><time>2026-07-06T11:04:11.926Z</time></trkpt>
      <trkpt lat="51.0218150" lon="13.8721570"><ele>241.6</ele><time>2026-07-06T11:04:26.002Z</time></trkpt>
      <trkpt lat="51.0217540" lon="13.8713530"><ele>238.9</ele><time>2026-07-06T11:05:13.378Z</time></trkpt>
      <trkpt lat="51.0217260" lon="13.8712100"><ele>238.4</ele><time>2026-07-06T11:05:22.137Z</time></trkpt>
      <trkpt lat="51.0216570" lon="13.8710520"><ele>237.7</ele><time>2026-07-06T11:05:33.378Z</time></trkpt>
      <trkpt lat="51.0215340" lon="13.8708700"><ele>236.6</ele><time>2026-07-06T11:05:49.367Z</time></trkpt>
      <trkpt lat="51.0211960" lon="13.8705030"><ele>233.7</ele><time>2026-07-06T11:06:28.982Z</time></trkpt>
      <trkpt lat="51.0211610" lon="13.8704080"><ele>233.3</ele><time>2026-07-06T11:06:35.414Z</time></trkpt>
      <trkpt lat="51.0211320" lon="13.8700670"><ele>231.9</ele><time>2026-07-06T11:06:55.959Z</time></trkpt>
      <trkpt lat="51.0210930" lon="13.8698810"><ele>231.2</ele><time>2026-07-06T11:07:07.378Z</time></trkpt>
      <trkpt lat="51.0209700" lon="13.8696030"><ele>230.0</ele><time>2026-07-06T11:07:27.132Z</time></trkpt>
      <trkpt lat="51.0208700" lon="13.8692110"><ele>228.4</ele><time>2026-07-06T11:07:52.031Z</time></trkpt>
      <trkpt lat="51.0207600" lon="13.8690770"><ele>227.6</ele><time>2026-07-06T11:08:04.900Z</time></trkpt>
      <trkpt lat="51.0205840" lon="13.8690030"><ele>226.4</ele><time>2026-07-06T11:08:22.248Z</time></trkpt>
      <trkpt lat="51.0204910" lon="13.8688770"><ele>225.5</ele><time>2026-07-06T11:08:34.179Z</time></trkpt>
      <trkpt lat="51.0204690" lon="13.8687590"><ele>224.8</ele><time>2026-07-06T11:08:42.148Z</time></trkpt>
      <trkpt lat="51.0205110" lon="13.8682020"><ele>220.9</ele><time>2026-07-06T11:09:20.843Z</time></trkpt>
      <trkpt lat="51.0204760" lon="13.8679760"><ele>219.2</ele><time>2026-07-06T11:09:37.182Z</time></trkpt>
      <trkpt lat="51.0203950" lon="13.8677640"><ele>217.0</ele><time>2026-07-06T11:09:56.014Z</time></trkpt>
      <trkpt lat="51.0202850" lon="13.8675710"><ele>214.3</ele><time>2026-07-06T11:10:17.326Z</time></trkpt>
      <trkpt lat="51.0203480" lon="13.8674660"><ele>212.5</ele><time>2026-07-06T11:10:30.475Z</time></trkpt>
      <trkpt lat="51.0204010" lon="13.8672900"><ele>210.6</ele><time>2026-07-06T11:10:45.947Z</time></trkpt>
      <trkpt lat="51.0204010" lon="13.8670200"><ele>208.5</ele><time>2026-07-06T11:11:05.356Z</time></trkpt>
      <trkpt lat="51.0203230" lon="13.8667670"><ele>206.5</ele><time>2026-07-06T11:11:24.934Z</time></trkpt>
      <trkpt lat="51.0200940" lon="13.8667230"><ele>203.7</ele><time>2026-07-06T11:11:51.107Z</time></trkpt>
      <trkpt lat="51.0200270" lon="13.8662710"><ele>199.8</ele><time>2026-07-06T11:12:25.543Z</time></trkpt>
      <trkpt lat="51.0200290" lon="13.8662100"><ele>199.1</ele><time>2026-07-06T11:12:30.822Z</time></trkpt>
      <trkpt lat="51.0200640" lon="13.8661570"><ele>198.2</ele><time>2026-07-06T11:12:37.548Z</time></trkpt>
      <trkpt lat="51.0200290" lon="13.8662100"><ele>197.4</ele><time>2026-07-06T11:12:43.850Z</time></trkpt>
      <trkpt lat="51.0200270" lon="13.8662710"><ele>196.9</ele><time>2026-07-06T11:12:48.332Z</time></trkpt>
      <trkpt lat="51.0199730" lon="13.8664420"><ele>194.7</ele><time>2026-07-06T11:13:04.901Z</time></trkpt>
      <trkpt lat="51.0199440" lon="13.8667050"><ele>191.9</ele><time>2026-07-06T11:13:26.881Z</time></trkpt>
      <trkpt lat="51.0198360" lon="13.8665780"><ele>189.4</ele><time>2026-07-06T11:13:45.568Z</time></trkpt>
      <trkpt lat="51.0197260" lon="13.8665380"><ele>187.3</ele><time>2026-07-06T11:14:01.265Z</time></trkpt>
      <trkpt lat="51.0196860" lon="13.8665140"><ele>186.6</ele><time>2026-07-06T11:14:06.808Z</time></trkpt>
      <trkpt lat="51.0195190" lon="13.8666400"><ele>183.1</ele><time>2026-07-06T11:14:32.786Z</time></trkpt>
      <trkpt lat="51.0195730" lon="13.8663990"><ele>180.3</ele><time>2026-07-06T11:14:54.335Z</time></trkpt>
      <trkpt lat="51.0195780" lon="13.8661890"><ele>178.4</ele><time>2026-07-06T11:15:10.428Z</time></trkpt>
      <trkpt lat="51.0194900" lon="13.8655140"><ele>170.6</ele><time>2026-07-06T11:16:09.578Z</time></trkpt>
      <trkpt lat="51.0195030" lon="13.8652370"><ele>167.0</ele><time>2026-07-06T11:16:35.458Z</time></trkpt>
      <trkpt lat="51.0195540" lon="13.8650560"><ele>164.6</ele><time>2026-07-06T11:16:53.159Z</time></trkpt>
      <trkpt lat="51.0196880" lon="13.8648330"><ele>160.5</ele><time>2026-07-06T11:17:22.376Z</time></trkpt>
      <trkpt lat="51.0198950" lon="13.8647680"><ele>156.9</ele><time>2026-07-06T11:17:50.331Z</time></trkpt>
      <trkpt lat="51.0201040" lon="13.8647800"><ele>154.2</ele><time>2026-07-06T11:18:14.645Z</time></trkpt>
      <trkpt lat="51.0202010" lon="13.8647320"><ele>153.1</ele><time>2026-07-06T11:18:25.707Z</time></trkpt>
      <trkpt lat="51.0201980" lon="13.8646320"><ele>152.4</ele><time>2026-07-06T11:18:32.626Z</time></trkpt>
      <trkpt lat="51.0201180" lon="13.8645280"><ele>151.5</ele><time>2026-07-06T11:18:43.152Z</time></trkpt>
      <trkpt lat="51.0198100" lon="13.8643820"><ele>148.6</ele><time>2026-07-06T11:19:16.215Z</time></trkpt>
      <trkpt lat="51.0196210" lon="13.8644420"><ele>147.0</ele><time>2026-07-06T11:19:35.596Z</time></trkpt>
      <trkpt lat="51.0194970" lon="13.8645620"><ele>145.8</ele><time>2026-07-06T11:19:50.178Z</time></trkpt>
      <trkpt lat="51.0193080" lon="13.8646520"><ele>144.0</ele><time>2026-07-06T11:20:10.538Z</time></trkpt>
      <trkpt lat="51.0192540" lon="13.8646090"><ele>143.4</ele><time>2026-07-06T11:20:16.932Z</time></trkpt>
      <trkpt lat="51.0190960" lon="13.8646160"><ele>141.8</ele><time>2026-07-06T11:20:33.765Z</time></trkpt>
      <trkpt lat="51.0190400" lon="13.8645690"><ele>141.3</ele><time>2026-07-06T11:20:40.052Z</time></trkpt>
      <trkpt lat="51.0189390" lon="13.8643730"><ele>139.8</ele><time>2026-07-06T11:20:56.649Z</time></trkpt>
      <trkpt lat="51.0180170" lon="13.8629420"><ele>127.9</ele><time>2026-07-06T11:23:10.093Z</time></trkpt>
      <trkpt lat="51.0176250" lon="13.8633660"><ele>124.6</ele><time>2026-07-06T11:23:55.801Z</time></trkpt>
      <trkpt lat="51.0168480" lon="13.8623990"><ele>120.1</ele><time>2026-07-06T11:25:29.740Z</time></trkpt>
      <trkpt lat="51.0162360" lon="13.8615240"><ele>117.2</ele><time>2026-07-06T11:26:50.697Z</time></trkpt>
      <trkpt lat="51.0161970" lon="13.8614670"><ele>117.0</ele><time>2026-07-06T11:26:55.867Z</time></trkpt>
      <trkpt lat="51.0157160" lon="13.8607690"><ele>115.8</ele><time>2026-07-06T11:28:03.403Z</time></trkpt>
      <trkpt lat="51.0156490" lon="13.8606720"><ele>115.6</ele><time>2026-07-06T11:28:12.694Z</time></trkpt>
      <trkpt lat="51.0156020" lon="13.8606130"><ele>115.6</ele><time>2026-07-06T11:28:19.275Z</time></trkpt>
      <trkpt lat="51.0149800" lon="13.8596870"><ele>115.4</ele><time>2026-07-06T11:29:52.232Z</time></trkpt>
      <trkpt lat="51.0147620" lon="13.8602840"><ele>115.6</ele><time>2026-07-06T11:30:40.650Z</time></trkpt>
      <trkpt lat="51.0143380" lon="13.8612460"><ele>116.0</ele><time>2026-07-06T11:32:03.248Z</time></trkpt>
      <trkpt lat="51.0142880" lon="13.8611630"><ele>116.1</ele><time>2026-07-06T11:32:11.545Z</time></trkpt>
      <trkpt lat="51.0142750" lon="13.8611860"><ele>116.1</ele><time>2026-07-06T11:32:13.683Z</time></trkpt>
      <trkpt lat="51.0124730" lon="13.8642910"><ele>116.0</ele><time>2026-07-06T11:37:05.383Z</time></trkpt>
      <trkpt lat="51.0123480" lon="13.8645060"><ele>115.8</ele><time>2026-07-06T11:37:24.942Z</time></trkpt>
      <trkpt lat="51.0119680" lon="13.8645150"><ele>114.8</ele><time>2026-07-06T11:38:03.385Z</time></trkpt>
      <trkpt lat="51.0116820" lon="13.8645030"><ele>113.7</ele><time>2026-07-06T11:38:31.240Z</time></trkpt>
      <trkpt lat="51.0114260" lon="13.8643990"><ele>112.5</ele><time>2026-07-06T11:38:56.408Z</time></trkpt>
      <trkpt lat="51.0113630" lon="13.8644140"><ele>112.2</ele><time>2026-07-06T11:39:02.444Z</time></trkpt>
      <trkpt lat="51.0112880" lon="13.8644860"><ele>111.9</ele><time>2026-07-06T11:39:11.088Z</time></trkpt>
      <trkpt lat="51.0112010" lon="13.8645140"><ele>111.5</ele><time>2026-07-06T11:39:19.552Z</time></trkpt>
      <trkpt lat="51.0110890" lon="13.8644710"><ele>111.0</ele><time>2026-07-06T11:39:30.597Z</time></trkpt>
      <trkpt lat="51.0110150" lon="13.8644140"><ele>110.7</ele><time>2026-07-06T11:39:38.653Z</time></trkpt>
      <trkpt lat="51.0108260" lon="13.8641750"><ele>109.8</ele><time>2026-07-06T11:40:02.256Z</time></trkpt>
      <trkpt lat="51.0107040" lon="13.8640090"><ele>109.3</ele><time>2026-07-06T11:40:18.257Z</time></trkpt>
      <trkpt lat="51.0106260" lon="13.8638950"><ele>109.0</ele><time>2026-07-06T11:40:28.908Z</time></trkpt>
      <trkpt lat="51.0100280" lon="13.8628320"><ele>109.0</ele><time>2026-07-06T11:42:07.496Z</time></trkpt>
      <trkpt lat="51.0099240" lon="13.8627470"><ele>109.4</ele><time>2026-07-06T11:42:21.808Z</time></trkpt>
      <trkpt lat="51.0099060" lon="13.8627320"><ele>109.5</ele><time>2026-07-06T11:42:24.415Z</time></trkpt>
      <trkpt lat="51.0099160" lon="13.8626940"><ele>109.6</ele><time>2026-07-06T11:42:27.631Z</time></trkpt>
      <trkpt lat="51.0099160" lon="13.8625290"><ele>110.1</ele><time>2026-07-06T11:42:40.907Z</time></trkpt>
      <trkpt lat="51.0097570" lon="13.8620350"><ele>111.6</ele><time>2026-07-06T11:43:24.827Z</time></trkpt>
      <trkpt lat="51.0095910" lon="13.8616710"><ele>112.9</ele><time>2026-07-06T11:44:00.747Z</time></trkpt>
      <trkpt lat="51.0095990" lon="13.8616540"><ele>112.9</ele><time>2026-07-06T11:44:02.215Z</time></trkpt>
      <trkpt lat="51.0094610" lon="13.8615060"><ele>113.7</ele><time>2026-07-06T11:44:23.496Z</time></trkpt>
      <trkpt lat="51.0092460" lon="13.8611930"><ele>114.8</ele><time>2026-07-06T11:44:59.575Z</time></trkpt>
      <trkpt lat="51.0091530" lon="13.8609700"><ele>115.4</ele><time>2026-07-06T11:45:20.269Z</time></trkpt>
      <trkpt lat="51.0091130" lon="13.8608090"><ele>115.8</ele><time>2026-07-06T11:45:33.704Z</time></trkpt>
      <trkpt lat="51.0090530" lon="13.8604760"><ele>116.4</ele><time>2026-07-06T11:45:59.821Z</time></trkpt>
      <trkpt lat="51.0090050" lon="13.8600000"><ele>117.0</ele><time>2026-07-06T11:46:35.293Z</time></trkpt>
      <trkpt lat="51.0089400" lon="13.8592370"><ele>117.3</ele><time>2026-07-06T11:47:29.577Z</time></trkpt>
      <trkpt lat="51.0089040" lon="13.8588200"><ele>117.4</ele><time>2026-07-06T11:47:59.027Z</time></trkpt>
      <trkpt lat="51.0087960" lon="13.8576600"><ele>117.5</ele><time>2026-07-06T11:49:20.451Z</time></trkpt>
      <trkpt lat="51.0086650" lon="13.8562490"><ele>118.0</ele><time>2026-07-06T11:51:00.810Z</time></trkpt>
      <trkpt lat="51.0086540" lon="13.8561290"><ele>118.0</ele><time>2026-07-06T11:51:09.195Z</time></trkpt>
      <trkpt lat="51.0086160" lon="13.8561370"><ele>118.0</ele><time>2026-07-06T11:51:13.407Z</time></trkpt>
      <trkpt lat="51.0082990" lon="13.8556460"><ele>118.3</ele><time>2026-07-06T11:52:03.097Z</time></trkpt>
      <trkpt lat="51.0082270" lon="13.8555380"><ele>118.4</ele><time>2026-07-06T11:52:14.328Z</time></trkpt>
      <trkpt lat="51.0082630" lon="13.8554740"><ele>118.4</ele><time>2026-07-06T11:52:20.263Z</time></trkpt>
      <trkpt lat="51.0082800" lon="13.8551700"><ele>118.5</ele><time>2026-07-06T11:52:41.714Z</time></trkpt>
      <trkpt lat="51.0083570" lon="13.8551700"><ele>118.5</ele><time>2026-07-06T11:52:50.175Z</time></trkpt>
    </trkseg>
  </trk>
</gpx>
